{
    "links": {
        "self": "http://www.neowsapp.com/rest/v1/neo/3684350?api_key=iIulBulltgU6a56xZRHN4H3l9WmuAYTsLGpBGhQ2"
    },
    "id": "3684350",
    "neo_reference_id": "3684350",
    "name": "(2014 QO362)",
    "designation": "2014 QO362",
    "nasa_jpl_url": "http://ssd.jpl.nasa.gov/sbdb.cgi?sstr=3684350",
    "absolute_magnitude_h": 22.3,
    "estimated_diameter": {
        "kilometers": {
            "estimated_diameter_min": 0.0921626549,
            "estimated_diameter_max": 0.2060819612
        },
        "meters": {
            "estimated_diameter_min": 92.1626548503,
            "estimated_diameter_max": 206.0819612321
        },
        "miles": {
            "estimated_diameter_min": 0.057267201,
            "estimated_diameter_max": 0.1280533543
        },
        "feet": {
            "estimated_diameter_min": 302.370924539,
            "estimated_diameter_max": 676.1219416887
        }
    },
    "is_potentially_hazardous_asteroid": false,
    "close_approach_data": [
        {
            "close_approach_date": "2013-08-27",
            "close_approach_date_full": "2013-Aug-27 16:01",
            "epoch_date_close_approach": 1377619260000,
            "relative_velocity": {
                "kilometers_per_second": "19.231874676",
                "kilometers_per_hour": "69234.7488337768",
                "miles_per_hour": "43019.7804628542"
            },
            "miss_distance": {
                "astronomical": "0.4816712937",
                "lunar": "187.3701332493",
                "kilometers": "72056999.577664419",
                "miles": "44774143.3329462222"
            },
            "orbiting_body": "Earth"
        },
        {
            "close_approach_date": "2014-08-17",
            "close_approach_date_full": "2014-Aug-17 06:10",
            "epoch_date_close_approach": 1408255800000,
            "relative_velocity": {
                "kilometers_per_second": "19.7197262581",
                "kilometers_per_hour": "70991.0145293256",
                "miles_per_hour": "44111.0556668468"
            },
            "miss_distance": {
                "astronomical": "0.3240497643",
                "lunar": "126.0553583127",
                "kilometers": "48477154.513282041",
                "miles": "30122307.0246165258"
            },
            "orbiting_body": "Earth"
        },
        {
            "close_approach_date": "2015-08-14",
            "close_approach_date_full": "2015-Aug-14 07:25",
            "epoch_date_close_approach": 1439537100000,
            "relative_velocity": {
                "kilometers_per_second": "23.4698164646",
                "kilometers_per_hour": "84491.3392724776",
                "miles_per_hour": "52499.6324496125"
            },
            "miss_distance": {
                "astronomical": "0.3542286365",
                "lunar": "137.7949395985",
                "kilometers": "52991849.513404255",
                "miles": "32927608.414138519"
            },
            "orbiting_body": "Earth"
        },
        {
            "close_approach_date": "2023-12-07",
            "close_approach_date_full": "2023-Dec-07 14:20",
            "epoch_date_close_approach": 1701958800000,
            "relative_velocity": {
                "kilometers_per_second": "29.3434870168",
                "kilometers_per_hour": "105636.553260336",
                "miles_per_hour": "65638.4461077904"
            },
            "miss_distance": {
                "astronomical": "0.1190916802",
                "lunar": "46.3266635978",
                "kilometers": "17815861.692641174",
                "miles": "11070263.1208852412"
            },
            "orbiting_body": "Venus"
        },
        {
            "close_approach_date": "2024-05-05",
            "close_approach_date_full": "2024-May-05 12:44",
            "epoch_date_close_approach": 1714913040000,
            "relative_velocity": {
                "kilometers_per_second": "18.166453578",
                "kilometers_per_hour": "65399.2328809019",
                "miles_per_hour": "40636.5400086915"
            },
            "miss_distance": {
                "astronomical": "0.0010963069",
                "lunar": "0.4264633841",
                "kilometers": "164005.177106303",
                "miles": "101908.0915128614"
            },
            "orbiting_body": "Mars"
        }
    ],
    "orbital_data": {
        "orbit_id": "3",
        "orbit_determination_date": "2017-04-06 08:39:05",
        "first_observation_date": "2014-08-23",
        "last_observation_date": "2014-08-29",
        "data_arc_in_days": 6,
        "observations_used": 11,
        "orbit_uncertainty": "9",
        "minimum_orbit_intersection": ".297198",
        "jupiter_tisserand_invariant": "5.588",
        "epoch_osculation": "2456895.5",
        "eccentricity": ".4043994134071052",
        "semi_major_axis": "1.048747162260621",
        "inclination": "40.24501724667807",
        "ascending_node_longitude": "152.2404756542554",
        "orbital_period": "392.2876401058301",
        "perihelion_distance": ".6246344250300598",
        "perihelion_argument": "28.23975913517071",
        "aphelion_distance": "1.472859899491183",
        "perihelion_time": "2456765.112158198445",
        "mean_anomaly": "119.6561355741327",
        "mean_motion": ".9176939653333975",
        "equinox": "J2000",
        "orbit_class": {
            "orbit_class_type": "APO",
            "orbit_class_description": "Near-Earth asteroid orbits which cross the Earth’s orbit similar to that of 1862 Apollo",
            "orbit_class_range": "a (semi-major axis) > 1.0 AU; q (perihelion) < 1.017 AU"
        }
    },
    "is_sentry_object": false
}